[{"OBJECT_NAME":"STARLINK-5736","OBJECT_ID":"2023-020R","EPOCH":"2026-03-09T22:00:01.999584","MEAN_MOTION":15.10700705,"ECCENTRICITY":0.00015383,"INCLINATION":43.0001,"RA_OF_ASC_NODE":3.1577,"ARG_OF_PERICENTER":270.962,"MEAN_ANOMALY":184.2536,"EPHEMERIS_TYPE":0,"CLASSIFICATION_TYPE":"U","NORAD_CAT_ID":55584,"ELEMENT_SET_NO":999,"REV_AT_EPOCH":578,"BSTAR":0.00096388062,"MEAN_MOTION_DOT":0.00016061,"MEAN_MOTION_DDOT":0},{"OBJECT_NAME":"LEMUR-2-TILLINFINITY","OBJECT_ID":"2025-061F","EPOCH":"2026-03-09T21:40:30.357696","MEAN_MOTION":15.139452,"ECCENTRICITY":0.00168906,"INCLINATION":97.5532,"RA_OF_ASC_NODE":45.5587,"ARG_OF_PERICENTER":226.702,"MEAN_ANOMALY":133.2804,"EPHEMERIS_TYPE":0,"CLASSIFICATION_TYPE":"U","NORAD_CAT_ID":63356,"ELEMENT_SET_NO":999,"REV_AT_EPOCH":5261,"BSTAR":0.00030453504,"MEAN_MOTION_DOT":5.472e-5,"MEAN_MOTION_DDOT":0}]
